norad_id,name,regime,epoch,line1,line2,inclination,eccentricity,mean_motion,raan,arg_pericenter,mean_anomaly
19789,COSMOS 1998,LEO,21241.43609671,1 19789U 89009E   21241.43609671  .00000028  00000-0  91934-4 0    10\,2 19789  82.6153  10.2681 0015401 316.4782  43.5094 12.64870103502421,82.6153,0.0015401,12.64870103,10.2681,316.4782,43.5094
19789,COSMOS 1998,LEO,21241.83159165,1 19789U 89009E   21241.83159165  .00000033  00000-0  11863-3 0    10\,2 19789  82.6153  10.0157 0015386 315.5287  44.4570 12.64870144502478,82.6153,0.0015386,12.64870144,10.0157,315.5287,44.457
19789,COSMOS 1998,LEO,21242.06888862,1 19789U 89009E   21242.06888862  .00000032  00000-0  11627-3 0  6911\,2 19789  82.6154   9.8643 0015378 314.9635  45.0210 12.64870148502681,82.6154,0.0015378,12.64870148,9.8643,314.9635,45.021
19789,COSMOS 1998,LEO,21242.62258155,1 19789U 89009E   21242.62258155  .00000029  00000-0  99418-4 0    15\,2 19789  82.6154   9.5110 0015366 313.6280  46.3538 12.64870162502577,82.6154,0.0015366,12.64870162,9.511,313.628,46.3538
19789,COSMOS 1998,LEO,21242.85987854,1 19789U 89009E   21242.85987854  .00000026  00000-0  84453-4 0    15\,2 19789  82.6155   9.3596 0015362 313.0478  46.9327 12.64870163502600,82.6155,0.0015362,12.64870163,9.3596,313.0478,46.9327
19789,COSMOS 1998,LEO,21243.09717551,1 19789U 89009E   21243.09717551  .00000027  00000-0  89460-4 0    11\,2 19789  82.6155   9.2082 0015355 312.4791  47.5004 12.64870169502630,82.6155,0.0015355,12.64870169,9.2082,312.4791,47.5004
19789,COSMOS 1998,LEO,21243.41357142,1 19789U 89009E   21243.41357142  .00000028  00000-0  95013-4 0    15\,2 19789  82.6155   9.0064 0015348 311.7091  48.2688 12.64870211502673,82.6155,0.0015348,12.64870211,9.0064,311.7091,48.2688
19789,COSMOS 1998,LEO,21243.80906638,1 19789U 89009E   21243.80906638  .00000026  00000-0  82834-4 0    13\,2 19789  82.6156   8.7540 0015341 310.7375  49.2385 12.64870205502720,82.6156,0.0015341,12.64870205,8.754,310.7375,49.2385
19789,COSMOS 1998,LEO,21244.44185830,1 19789U 89009E   21244.44185830  .00000020  00000-0  50377-4 0    18\,2 19789  82.6156   8.3503 0015324 309.2105  50.7626 12.64870220502801,82.6156,0.0015324,12.6487022,8.3503,309.2105,50.7626
19789,COSMOS 1998,LEO,21244.83735330,1 19789U 89009E   21244.83735330  .00000015  00000-0  21465-4 0    17\,2 19789  82.6157   8.0979 0015319 308.2360  51.7353 12.64870201502854,82.6157,0.0015319,12.64870201,8.0979,308.236,51.7353
19789,COSMOS 1998,LEO,21245.39104632,1 19789U 89009E   21245.39104632  .00000008  00000-0 -15210-4 0    18\,2 19789  82.6158   7.7447 0015302 306.9080  53.0610 12.64870185502927,82.6158,0.0015302,12.64870185,7.7447,306.908,53.061
19789,COSMOS 1998,LEO,21245.78654133,1 19789U 89009E   21245.78654133  .00000008  00000-0 -13298-4 0    11\,2 19789  82.6158   7.4924 0015294 305.9449  54.0225 12.64870179502973,82.6158,0.0015294,12.64870179,7.4924,305.9449,54.0225
19789,COSMOS 1998,LEO,21246.41933330,1 19789U 89009E   21246.41933330  .00000006  00000-0 -22792-4 0    18\,2 19789  82.6159   7.0887 0015282 304.4055  55.5593 12.64870198503057,82.6159,0.0015282,12.64870198,7.0887,304.4055,55.5593
19789,COSMOS 1998,LEO,21247.28942236,1 19789U 89009E   21247.28942236  .00000004  00000-0 -37077-4 0    19\,2 19789  82.6160   6.5336 0015265 302.2847  57.6767 12.64870205503165,82.616,0.0015265,12.64870205,6.5336,302.2847,57.6767
19789,COSMOS 1998,LEO,21247.60581840,1 19789U 89009E   21247.60581840  .00000003  00000-0 -43374-4 0    11\,2 19789  82.6161   6.3317 0015261 301.5123  58.4478 12.64870190503204,82.6161,0.0015261,12.6487019,6.3317,301.5123,58.4478
19789,COSMOS 1998,LEO,21248.55500653,1 19789U 89009E   21248.55500653  .00000008  00000-0 -16570-4 0    12\,2 19789  82.6161   5.7261 0015241 299.2114  60.7454 12.64870214503326,82.6161,0.0015241,12.64870214,5.7261,299.2114,60.7454
19789,COSMOS 1998,LEO,21249.34599668,1 19789U 89009E   21249.34599668  .00000010  00000-0 -24381-5 0    17\,2 19789  82.6162   5.2215 0015230 297.3013  62.6529 12.64870248503428,82.6162,0.001523,12.64870248,5.2215,297.3013,62.6529
19789,COSMOS 1998,LEO,21249.74149180,1 19789U 89009E   21249.74149180  .00000015  00000-0  26004-4 0    18\,2 19789  82.6163   4.9692 0015224 296.3376  63.6153 12.64870262503473,82.6163,0.0015224,12.64870262,4.9692,296.3376,63.6153
19789,COSMOS 1998,LEO,21250.61158107,1 19789U 89009E   21250.61158107  .00000022  00000-0  59364-4 0    18\,2 19789  82.6163   4.4141 0015205 294.2151  65.7352 12.64870269503587,82.6163,0.0015205,12.64870269,4.4141,294.2151,65.7352
19789,COSMOS 1998,LEO,21250.69068012,1 19789U 89009E   21250.69068012  .00000020  00000-0  48706-4 0    17\,2 19789  82.6164   4.3636 0015208 294.0079  65.9421 12.64870247503592,82.6164,0.0015208,12.64870247,4.3636,294.0079,65.9421
19789,COSMOS 1998,LEO,21251.56076938,1 19789U 89009E   21251.56076938  .00000025  00000-0  78023-4 0    10\,2 19789  82.6164   3.8085 0015203 291.8824  68.0652 12.64870273503704,82.6164,0.0015203,12.64870273,3.8085,291.8824,68.0652
19789,COSMOS 1998,LEO,21251.71896746,1 19789U 89009E   21251.71896746  .00000026  00000-0  83231-4 0  6951\,2 19789  82.6164   3.7076 0015201 291.4895  68.4577 12.64870277503901,82.6164,0.0015201,12.64870277,3.7076,291.4895,68.4577
19789,COSMOS 1998,LEO,21251.79806651,1 19789U 89009E   21251.79806651  .00000022  00000-0  63449-4 0    11\,2 19789  82.6164   3.6571 0015201 291.2976  68.6493 12.64870257503736,82.6164,0.0015201,12.64870257,3.6571,291.2976,68.6493
19789,COSMOS 1998,LEO,21252.27266072,1 19789U 89009E   21252.27266072  .00000023  00000-0  66733-4 0    12\,2 19789  82.6164   3.3544 0015198 290.1401  69.8056 12.64870260503797,82.6164,0.0015198,12.6487026,3.3544,290.1401,69.8056
19789,COSMOS 1998,LEO,21252.35175975,1 19789U 89009E   21252.35175975  .00000022  00000-0  61348-4 0    18\,2 19789  82.6165   3.3039 0015197 289.9478  69.9978 12.64870258503809,82.6165,0.0015197,12.64870258,3.3039,289.9478,69.9978
19789,COSMOS 1998,LEO,21253.22184911,1 19789U 89009E   21253.22184911  .00000031  00000-0  11026-3 0    12\,2 19789  82.6165   2.7488 0015192 287.8215  72.1221 12.64870290503916,82.6165,0.0015192,12.6487029,2.7488,287.8215,72.1221
19789,COSMOS 1998,LEO,21253.77554235,1 19789U 89009E   21253.77554235  .00000029  00000-0  97350-4 0    14\,2 19789  82.6166   2.3956 0015194 286.4563  73.4859 12.64870281503984,82.6166,0.0015194,12.64870281,2.3956,286.4563,73.4859
19789,COSMOS 1998,LEO,21254.40833467,1 19789U 89009E   21254.40833467  .00000025  00000-0  77684-4 0    16\,2 19789  82.6166   1.9919 0015183 284.9244  75.0167 12.64870284504068,82.6166,0.0015183,12.64870284,1.9919,284.9244,75.0167
19789,COSMOS 1998,LEO,21254.72473082,1 19789U 89009E   21254.72473082  .00000028  00000-0  96035-4 0    18\,2 19789  82.6166   1.7900 0015182 284.1448  75.7957 12.64870310504102,82.6166,0.0015182,12.6487031,1.79,284.1448,75.7957
19789,COSMOS 1998,LEO,21255.35752313,1 19789U 89009E   21255.35752313  .00000026  00000-0  82670-4 0    13\,2 19789  82.6167   1.3864 0015177 282.6055  77.3340 12.64870321504183,82.6167,0.0015177,12.64870321,1.3864,282.6055,77.334
19789,COSMOS 1998,LEO,21255.75301834,1 19789U 89009E   21255.75301834  .00000025  00000-0  77323-4 0    13\,2 19789  82.6167   1.1341 0015178 281.6330  78.3059 12.64870315504234,82.6167,0.0015178,12.64870315,1.1341,281.633,78.3059
19789,COSMOS 1998,LEO,21256.38581065,1 19789U 89009E   21256.38581065  .00000022  00000-0  62037-4 0    12\,2 19789  82.6167   0.7304 0015171 280.1231  79.8150 12.64870347504317,82.6167,0.0015171,12.64870347,0.7304,280.1231,79.815
19789,COSMOS 1998,LEO,21256.78130589,1 19789U 89009E   21256.78130589  .00000018  00000-0  41144-4 0    18\,2 19789  82.6167   0.4781 0015171 279.1489  80.7887 12.64870342504364,82.6167,0.0015171,12.64870342,0.4781,279.1489,80.7887
19789,COSMOS 1998,LEO,21257.25590016,1 19789U 89009E   21257.25590016  .00000016  00000-0  27321-4 0    15\,2 19789  82.6167   0.1754 0015167 277.9830  81.9541 12.64870354504422,82.6167,0.0015167,12.64870354,0.1754,277.983,81.9541
19789,COSMOS 1998,LEO,21257.33499920,1 19789U 89009E   21257.33499920  .00000014  00000-0  17889-4 0    12\,2 19789  82.6167   0.1249 0015167 277.7910  82.1461 12.64870351504430,82.6167,0.0015167,12.64870351,0.1249,277.791,82.1461
19789,COSMOS 1998,LEO,21258.52148491,1 19789U 89009E   21258.52148491  .00000010  00000-0 -20427-5 0    18\,2 19789  82.6168 359.3681 0015171 274.8898  85.0463 12.64870354504581,82.6168,0.0015171,12.64870354,359.3681,274.8898,85.0463
19789,COSMOS 1998,LEO,21258.75878208,1 19789U 89009E   21258.75878208  .00000007  00000-0 -21781-4 0    18\,2 19789  82.6168 359.2167 0015174 274.2924  85.6434 12.64870346504615,82.6168,0.0015174,12.64870346,359.2167,274.2924,85.6434
19789,COSMOS 1998,LEO,21259.54977264,1 19789U 89009E   21259.54977264 -.00000001  00000-0 -60764-4 0    17\,2 19789  82.6168 358.7121 0015181 272.3625  87.5729 12.64870318504712,82.6168,0.0015181,12.64870318,358.7121,272.3625,87.5729
19789,COSMOS 1998,LEO,21260.57806046,1 19789U 89009E   21260.57806046  .00000000  00000-0 -58624-4 0    11\,2 19789  82.6168 358.0561 0015189 269.8374  90.0979 12.64870306504840,82.6168,0.0015189,12.64870306,358.0561,269.8374,90.0979
19789,COSMOS 1998,LEO,21260.97355579,1 19789U 89009E   21260.97355579  .00000001  00000-0 -53450-4 0  6991\,2 19789  82.6168 357.8039 0015189 268.8764  91.0589 12.64870318505076,82.6168,0.0015189,12.64870318,357.8039,268.8764,91.0589
19789,COSMOS 1998,LEO,21261.52724926,1 19789U 89009E   21261.52724926  .00000001  00000-0 -50678-4 0    15\,2 19789  82.6168 357.4507 0015194 267.5227  92.4126 12.64870321504961,82.6168,0.0015194,12.64870321,357.4507,267.5227,92.4126
19789,COSMOS 1998,LEO,21262.55553730,1 19789U 89009E   21262.55553730  .00000008  00000-0 -14434-4 0    19\,2 19789  82.6168 356.7947 0015190 264.9952  94.9407 12.64870321505097,82.6168,0.001519,12.64870321,356.7947,264.9952,94.9407
